NORAD_CAT_ID,OBJECT_NAME,OBJECT_TYPE,EPOCH,MEAN_MOTION,ECCENTRICITY,INCLINATION,RA_OF_ASC_NODE,ARG_OF_PERICENTER,MEAN_ANOMALY,BSTAR,MEAN_MOTION_DOT,MEAN_MOTION_DDOT,TLE_LINE0,TLE_LINE1,TLE_LINE2,SEMIMAJOR_AXIS,PERIOD,APOGEE,PERIGEE,DECAYED
52869.0,STARLINK-4266,PAYLOAD,2022-08-17 06:00:02,15.73198965,0.0003911,53.2135,104.3318,1.1922,221.2673,-0.00017047,-0.00024489,0.0,0 STARLINK-4266,1 52869U 22062AR  22229.25002315 -.00024489  00000-0 -17047-3 0  9998,2 52869  53.2135 104.3318 0003911   1.1922 221.2673 15.73198965 10053,6727.898,91.533,352.394,347.13199999999995,0.0
52869.0,STARLINK-4266,PAYLOAD,2022-08-17 14:00:01,15.73156944,0.0003722,53.214,102.6804,1.6469999999999998,309.6533,0.00053073,0.00074409,0.0,0 STARLINK-4266,1 52869U 22062AR  22229.58334491  .00074409  00000-0  53073-3 0  9991,2 52869  53.2140 102.6804 0003722   1.6470 309.6533 15.73156944  1308,6728.018,91.536,352.38699999999994,347.379,0.0
52869.0,STARLINK-4266,PAYLOAD,2022-08-18 08:00:01,15.7321289,0.0003896,53.214,98.9698,359.598,241.8117,6.4358e-05,8.425e-05,0.0,0 STARLINK-4266,1 52869U 22062AR  22230.33334491  .00008425  00000-0  64358-4 0  9990,2 52869  53.2140  98.9698 0003896 359.5980 241.8117 15.73212890 10239,6727.858,91.532,352.345,347.102,0.0
52869.0,STARLINK-4266,PAYLOAD,2022-08-18 14:00:01,15.73255837,0.0003741,53.2141,97.7315,2.1629,215.9954,-0.00029648,-0.00042142,0.0,0 STARLINK-4266,1 52869U 22062AR  22230.58334491 -.00042142  00000-0 -29648-3 0  9995,2 52869  53.2141  97.7315 0003741   2.1629 215.9954 15.73255837  1300,6727.736,91.53,352.11800000000005,347.084,0.0
52869.0,STARLINK-4266,PAYLOAD,2022-08-18 22:00:00,15.73249414,0.0003968,53.214,96.084,2.9904,304.1422,-0.00075218,-0.00105157,0.0,0 STARLINK-4266,1 52869U 22062AR  22230.91667824 -.00105157  00000-0 -75218-3 0  9991,2 52869  53.2140  96.0840 0003968   2.9904 304.1422 15.73249414  1304,6727.754,91.53,352.289,346.95,0.0
52869.0,STARLINK-4266,PAYLOAD,2022-08-19 14:00:01,15.7311238,0.0003793999999999,53.2146,92.7828,2.4546,122.5185,0.00026673,0.00036847,0.0,0 STARLINK-4266,1 52869U 22062AR  22231.58334491  .00036847  00000-0  26673-3 0  9994,2 52869  53.2146  92.7828 0003794   2.4546 122.5185 15.73112380  1302,6728.145,91.538,352.56300000000016,347.457,0.0
52869.0,STARLINK-4266,PAYLOAD,2022-08-19 16:00:00,15.73123495,0.0003819999999999,53.2148,92.3709,2.1488,235.0281,0.00021697,0.00029846,0.0,0 STARLINK-4266,1 52869U 22062AR  22231.66667824  .00029846  00000-0  21697-3 0  9994,2 52869  53.2148  92.3709 0003820   2.1488 235.0281 15.73123495 10441,6728.113,91.538,352.548,347.408,0.0
52869.0,STARLINK-4266,PAYLOAD,2022-08-19 22:00:00,15.73131087,0.0004104,53.2147,91.1355,2.8576,210.9565,0.00031312,0.00043436,0.0,0 STARLINK-4266,1 52869U 22062AR  22231.91667824  .00043436  00000-0  31312-3 0  9998,2 52869  53.2147  91.1355 0004104   2.8576 210.9565 15.73131087  1303,6728.092,91.537,352.718,347.195,0.0
52869.0,STARLINK-4266,PAYLOAD,2022-08-20 14:00:01,15.73193241,0.0003867,53.2146,87.8348,3.9624,27.6093,0.00057608,0.00081012,0.0,0 STARLINK-4266,1 52869U 22062AR  22232.58334491  .00081012  00000-0  57608-3 0  9991,2 52869  53.2146  87.8348 0003867   3.9624  27.6093 15.73193241  1306,6727.9140000000025,91.534,352.381,347.17800000000005,0.0
52869.0,STARLINK-4266,PAYLOAD,2022-08-20 22:00:00,15.73223941,0.0004143,53.2144,86.1875,3.7033,116.8019,0.00029392,0.00040886,0.0,0 STARLINK-4266,1 52869U 22062AR  22232.91667824  .00040886  00000-0  29392-3 0  9990,2 52869  53.2144  86.1875 0004143   3.7033 116.8019 15.73223941  1301,6727.8269999999975,91.532,352.47900000000016,346.905,0.0
52869.0,STARLINK-4266,PAYLOAD,2022-08-21 06:00:00,15.73281133,0.0004085,53.2145,84.5369,2.7194,206.7385,-0.00084668,-0.00118273,0.0,0 STARLINK-4266,1 52869U 22062AR  22233.25001157 -.00118273  00000-0 -84668-3 0  9994,2 52869  53.2145  84.5369 0004085   2.7194 206.7385 15.73281133 10687,6727.6640000000025,91.528,352.277,346.781,0.0
52869.0,STARLINK-4266,PAYLOAD,2022-08-21 14:00:01,15.73194923,0.0003953999999999,53.2149,82.8861,4.7723,293.6603,-0.00016092,-0.00023152,0.0,0 STARLINK-4266,1 52869U 22062AR  22233.58334491 -.00023152  00000-0 -16092-3 0  9997,2 52869  53.2149  82.8861 0003954   4.7723 293.6603 15.73194923  1300,6727.91,91.533,352.435,347.11400000000015,0.0
52869.0,STARLINK-4266,PAYLOAD,2022-08-21 22:00:00,15.73171161,0.0004269,53.215,81.2387,6.8156,20.5405,0.00029235,0.00040571,0.0,0 STARLINK-4266,1 52869U 22062AR  22233.91667824  .00040571  00000-0  29235-3 0  9998,2 52869  53.2150  81.2387 0004269   6.8156  20.5405 15.73171161  1307,6727.977,91.535,352.715,346.97,0.0
52869.0,STARLINK-4266,PAYLOAD,2022-08-22 12:00:00,15.73214635,0.0004048,53.2146,78.35,7.0933,85.8875,0.00045328,0.00063538,0.0,0 STARLINK-4266,1 52869U 22062AR  22234.50001157  .00063538  00000-0  45328-3 0  9994,2 52869  53.2146  78.3500 0004048   7.0933  85.8875 15.73214635  1306,6727.853,91.532,352.44199999999995,346.995,0.0
52869.0,STARLINK-4266,PAYLOAD,2022-08-22 22:00:00,15.73201863,0.0004333,53.2145,76.2903,5.9542,288.2445,0.00011979,0.00016229,0.0,0 STARLINK-4266,1 52869U 22062AR  22234.91667824  .00016229  00000-0  11979-3 0  9998,2 52869  53.2145  76.2903 0004333   5.9542 288.2445 15.73201863 10951,6727.89,91.533,352.67,346.84,0.0
52869.0,STARLINK-4266,PAYLOAD,2022-08-23 14:00:01,15.73224118,0.0004104,53.2148,72.98899999999998,4.5566,107.5178,-0.00030213,-0.00042877,0.0,0 STARLINK-4266,1 52869U 22062AR  22235.58334491 -.00042877  00000-0 -30213-3 0  9995,2 52869  53.2148  72.9890 0004104   4.5566 107.5178 15.73224118  1302,6727.826,91.532,352.45300000000015,346.93,0.0
52869.0,STARLINK-4266,PAYLOAD,2022-08-23 20:00:01,15.73191242,0.0004376,53.2146,71.7535,3.8887,84.8997,6.5074e-05,8.518e-05,0.0,0 STARLINK-4266,1 52869U 22062AR  22235.83334491  .00008518  00000-0  65074-4 0  9999,2 52869  53.2146  71.7535 0004376   3.8887  84.8997 15.73191242 11096,6727.92,91.534,352.72900000000016,346.841,0.0
52869.0,STARLINK-4266,PAYLOAD,2022-08-23 22:00:01,15.73175992,0.0004458,53.2149,71.3414,4.0031,197.0849,0.00036483,0.0005086,0.0,0 STARLINK-4266,1 52869U 22062AR  22235.91668981  .00050860  00000-0  36483-3 0  9990,2 52869  53.2149  71.3414 0004458   4.0031 197.0849 15.73175992  1306,6727.964,91.535,352.82800000000015,346.829,0.0
52869.0,STARLINK-4266,PAYLOAD,2022-08-24 14:00:01,15.73286469,0.0004125,53.2162,68.0364,4.6037,14.3058,-0.0018383,-0.00252153,0.0,0 STARLINK-4266,1 52869U 22062AR  22236.58334491 -.00252153  00000-0 -18383-2 0  9999,2 52869  53.2162  68.0364 0004125   4.6037  14.3058 15.73286469  1306,6727.649,91.528,352.289,346.73900000000015,0.0
52869.0,STARLINK-4266,PAYLOAD,2022-08-24 16:00:00,15.73283896,0.0004317,53.2144,67.6286,4.135,127.0043,-0.00057874,-0.00081407,0.0,0 STARLINK-4266,1 52869U 22062AR  22236.66667824 -.00081407  00000-0 -57874-3 0  9998,2 52869  53.2144  67.6286 0004317   4.1350 127.0043 15.73283896 11229,6727.656,91.528,352.425,346.617,0.0
52869.0,STARLINK-4266,PAYLOAD,2022-08-24 22:00:00,15.73205093,0.0004518,53.2142,66.3927,2.8112,105.0912,0.00011308,0.00015286,0.0,0 STARLINK-4266,1 52869U 22062AR  22236.91667824  .00015286  00000-0  11308-3 0  9998,2 52869  53.2142  66.3927 0004518   2.8112 105.0912 15.73205093  1301,6727.880999999999,91.533,352.785,346.706,0.0
52869.0,STARLINK-4266,PAYLOAD,2022-08-25 06:00:02,15.73223299,0.0004386999999999,53.2142,64.7413,1.8717,195.0309,1.6988e-06,-3.87e-06,0.0,0 STARLINK-4266,1 52869U 22062AR  22237.25002315 -.00000387  00000-0  16988-5 0  9992,2 52869  53.2142  64.7413 0004387   1.8717 195.0309 15.73223299 11316,6727.829000000002,91.532,352.645,346.742,0.0
52869.0,STARLINK-4266,PAYLOAD,2022-08-25 14:00:01,15.73243178,0.0004297,53.2144,63.0914,2.0141,283.7638,-0.00059043,-0.0008288,0.0,0 STARLINK-4266,1 52869U 22062AR  22237.58334491 -.00082880  00000-0 -59043-3 0  9997,2 52869  53.2144  63.0914 0004297   2.0141 283.7638 15.73243178  1306,6727.772,91.531,352.528,346.746,0.0
52869.0,STARLINK-4266,PAYLOAD,2022-08-25 22:00:00,15.73203925,0.0004318,53.2176,61.4384,4.7291,9.8678,4.0930000000000005e-06,-5.1e-07,0.0,0 STARLINK-4266,1 52869U 22062AR  22237.91667824 -.00000051  00000-0  40930-5 0  9999,2 52869  53.2176  61.4384 0004318   4.7291   9.8678 15.73203925  1300,6727.884,91.533,352.654,346.844,0.0
52869.0,STARLINK-4266,PAYLOAD,2022-08-26 06:00:00,15.73212126,0.0004501,53.2144,59.7923,0.8628,102.759,0.00014664,0.00020025,0.0,0 STARLINK-4266,1 52869U 22062AR  22238.25001157  .00020025  00000-0  14664-3 0  9993,2 52869  53.2144  59.7923 0004501   0.8628 102.7590 15.73212126 11477,6727.861,91.532,352.754,346.69699999999995,0.0
52869.0,STARLINK-4266,PAYLOAD,2022-08-26 14:00:01,15.73255469,0.0004407,53.2143,58.1427,1.3082,191.3253,-0.000611,-0.00085764,0.0,0 STARLINK-4266,1 52869U 22062AR  22238.58335648 -.00085764  00000-0 -61100-3 0  9994,2 52869  53.2143  58.1427 0004407   1.3082 191.3253 15.73255469  1301,6727.736999999999,91.53,352.56699999999995,346.63699999999994,0.0
52869.0,STARLINK-4266,PAYLOAD,2022-08-26 20:00:01,15.73180508,0.0004641,53.214,56.9069,0.5825,168.7159,0.00025801,0.00035729,0.0,0 STARLINK-4266,1 52869U 22062AR  22238.83334491  .00035729  00000-0  25801-3 0  9999,2 52869  53.2140  56.9069 0004641   0.5825 168.7159 15.73180508 11565,6727.951,91.534,352.93800000000016,346.6930000000001,0.0
52869.0,STARLINK-4266,PAYLOAD,2022-08-26 22:00:00,15.73169886,0.0004683,53.2139,56.4948,0.4736,281.0573,0.00052009,0.00072948,0.0,0 STARLINK-4266,1 52869U 22062AR  22238.91667824  .00072948  00000-0  52009-3 0  9991,2 52869  53.2139  56.4948 0004683   0.4736 281.0573 15.73169886  1306,6727.981,91.535,352.997,346.695,0.0
52869.0,STARLINK-4266,PAYLOAD,2022-08-27 14:00:01,15.73196005,0.0004394,53.2142,53.1936,359.6069,99.8002,1.0392e-05,8.34e-06,0.0,0 STARLINK-4266,1 52869U 22062AR  22239.58334491  .00000834  00000-0  10392-4 0  9991,2 52869  53.2142  53.1936 0004394 359.6069  99.8002 15.73196005  1303,6727.906999999997,91.533,352.728,346.815,0.0
